PROGRESS-MS 32          
1 65586U 25204A   25308.87373923  .00010201  00000+0  18805-3 0  9991
2 65586  51.6335 329.9349 0005043  17.8705 342.2460 15.49753834   273
CYGNUS NG-23            
1 65616U 25208A   25308.87373923  .00010201  00000+0  18805-3 0  9999
2 65616  51.6335 329.9349 0005043  17.8705 342.2460 15.49753834   222
DRAGONFLY               
1 65729U 98067XH  25308.76152546  .00088406  00000+0  10549-2 0  9999
2 65729  51.6310 328.4405 0003888  78.0733 282.0696 15.60292750  7218
1998-067XJ              
1 65730U 98067XJ  25308.45906015  .00266038  00000+0  21415-2 0  9998
2 65730  51.6285 328.6616 0011121  56.8012 303.4050 15.69488856  7181
1998-067XK              
1 65731U 98067XK  25308.79026795  .00063217  00000+0  82327-3 0  9998
2 65731  51.6319 328.6335 0005195  55.0681 305.0799 15.58121065  7211
RSP-03                  
1 65732U 98067XL  25308.96850214  .00074566  00000+0  92953-3 0  9994
2 65732  51.6306 327.5728 0006010  57.3720 302.7852 15.59205939  7250
GHS-01                  
1 65733U 98067XM  25308.30363461  .00104594  00000+0  12127-2 0  9995
2 65733  51.6324 330.6344 0004187  71.8718 288.2732 15.60965600  7155
YOTSUBA-KULOVER         
1 65941U 98067XN  25308.31749561  .00050408  00000+0  77981-3 0  9990
2 65941  51.6323 332.2216 0002626   3.8293 356.2717 15.53557594  3875
BOTAN                   
1 65942U 98067XP  25308.30992354  .00070090  00000+0  10417-2 0  9999
2 65942  51.6322 332.1719 0004782  18.8156 341.3011 15.54512341  3875
E-KAGAKU-1              
1 65943U 98067XQ  25308.76732856  .00048620  00000+0  75103-3 0  9997
2 65943  51.6325 329.9769 0004501  10.3514 349.7568 15.53608610  3943
HRC MONOBLOCK CAMERA    
1 66052U 98067XR  25308.67201669  .00029080  00000+0  50072-3 0  9999
2 66052  51.6321 330.8374 0004544  27.1824 332.9403 15.50824800  2928
HTV-X1                  
1 66174U 25241A   25308.87373923  .00010201  00000+0  18805-3 0  9996
2 66174  51.6335 329.9349 0005043  17.8705 342.2460 15.49753834  1458
